NORAD_CAT_ID,OBJECT_NAME,OBJECT_TYPE,EPOCH,MEAN_MOTION,ECCENTRICITY,INCLINATION,RA_OF_ASC_NODE,ARG_OF_PERICENTER,MEAN_ANOMALY,BSTAR,MEAN_MOTION_DOT,MEAN_MOTION_DDOT,TLE_LINE0,TLE_LINE1,TLE_LINE2,SEMIMAJOR_AXIS,PERIOD,APOGEE,PERIGEE,DECAYED
54097.0,STARLINK-5197,PAYLOAD,2024-01-12 19:25:24,15.08830427,0.0001295,53.2163,241.4955,84.8193,275.2947,-5.3981e-05,-1.147e-05,0.0,0 STARLINK-5197,1 54097U 22136AY  24012.80931612 -.00001147  00000-0 -53981-4 0  9993,2 54097  53.2163 241.4955 0001295  84.8193 275.2947 15.08830427 69017,6917.91,95.438,540.671,538.879,0.0
54097.0,STARLINK-5197,PAYLOAD,2024-01-12 22:36:11,15.08832833,0.0001367,53.2165,240.9004,85.372,274.7428,-4.9003e-05,-1.068e-05,0.0,0 STARLINK-5197,1 54097U 22136AY  24012.94179507 -.00001068  00000-0 -49003-4 0  9997,2 54097  53.2165 240.9004 0001367  85.3720 274.7428 15.08832833 68560,6917.902,95.438,540.713,538.822,0.0
54097.0,STARLINK-5197,PAYLOAD,2024-01-13 00:11:34,15.08833361,0.0001465,53.216,240.6028,98.7147,261.4011,-3.0714e-05,-7.77e-06,0.0,0 STARLINK-5197,1 54097U 22136AY  24013.00803382 -.00000777  00000-0 -30714-4 0  9995,2 54097  53.2160 240.6028 0001465  98.7147 261.4011 15.08833361 68577,6917.901,95.438,540.779,538.752,0.0
54097.0,STARLINK-5197,PAYLOAD,2024-01-13 19:16:11,15.08842614,0.0001269,53.2165,237.0344,83.9735,276.1402,0.00010484,1.381e-05,0.0,0 STARLINK-5197,1 54097U 22136AY  24013.80290722  .00001381  00000-0  10484-3 0  9992,2 54097  53.2165 237.0344 0001269  83.9735 276.1402 15.08842614 69168,6917.872,95.437,540.615,538.86,0.0
54097.0,STARLINK-5197,PAYLOAD,2024-01-14 00:02:20,15.08847513,0.0001284,53.2165,236.1416,88.8625,271.2514,0.00015193,2.131e-05,0.0,0 STARLINK-5197,1 54097U 22136AY  24014.00162273  .00002131  00000-0  15193-3 0  9990,2 54097  53.2165 236.1416 0001284  88.8625 271.2514 15.08847513 68721,6917.857,95.437,540.611,538.834,0.0
54097.0,STARLINK-5197,PAYLOAD,2024-01-14 19:06:59,15.08833067,0.0001326,53.2172,232.5711,87.3149,272.7995,8.0073e-05,9.86e-06,0.0,0 STARLINK-5197,1 54097U 22136AY  24014.79651659  .00000986  00000-0  80073-4 0  9993,2 54097  53.2172 232.5711 0001326  87.3149 272.7995 15.08833067 69313,6917.902,95.438,540.684,538.849,0.0
54097.0,STARLINK-5197,PAYLOAD,2024-01-14 20:42:22,15.08834829,0.0001381,53.2169,232.2741,86.1919,273.9231,8.8658e-05,1.123e-05,0.0,0 STARLINK-5197,1 54097U 22136AY  24014.86275559  .00001123  00000-0  88658-4 0  9993,2 54097  53.2169 232.2741 0001381  86.1919 273.9231 15.08834829 68853,6917.896,95.438,540.717,538.806,0.0
54097.0,STARLINK-5197,PAYLOAD,2024-01-14 23:53:08,15.08837813,0.0001394,53.2172,231.6782,88.3443,271.7709,0.00010597,1.399e-05,0.0,0 STARLINK-5197,1 54097U 22136AY  24014.99523307  .00001399  00000-0  10597-3 0  9995,2 54097  53.2172 231.6782 0001394  88.3443 271.7709 15.08837813 68879,6917.887,95.438,540.716,538.788,0.0
54097.0,STARLINK-5197,PAYLOAD,2024-01-15 18:57:45,15.08845459,0.0001381,53.2169,228.107,114.4339,245.6797,-7.1654e-06,-4.02e-06,0.0,0 STARLINK-5197,1 54097U 22136AY  24015.79010998 -.00000402  00000-0 -71654-5 0  9990,2 54097  53.2169 228.1070 0001381 114.4339 245.6797 15.08845459 69465,6917.864,95.437,540.684,538.773,0.0
54097.0,STARLINK-5197,PAYLOAD,2024-01-16 14:02:23,15.0884022,0.0001636,53.2174,224.5431,112.4787,247.6379,5.8183e-05,6.38e-06,0.0,0 STARLINK-5197,1 54097U 22136AY  24016.58499121  .00000638  00000-0  58183-4 0  9997,2 54097  53.2174 224.5431 0001636 112.4787 247.6379 15.08840220 69111,6917.88,95.438,540.876,538.613,0.0
54097.0,STARLINK-5197,PAYLOAD,2024-01-16 20:23:55,15.08841884,0.0001581,53.2169,223.3547,106.84,253.2766,6.0889e-05,6.81e-06,0.0,0 STARLINK-5197,1 54097U 22136AY  24016.84995003  .00000681  00000-0  60889-4 0  9990,2 54097  53.2169 223.3547 0001581 106.8400 253.2766 15.08841884 69152,6917.875,95.437,540.833,538.646,0.0
54097.0,STARLINK-5197,PAYLOAD,2024-01-17 09:07:01,15.08837373,0.000144,53.2155,220.9784,90.4962,269.6195,4.8501e-05,4.84e-06,0.0,0 STARLINK-5197,1 54097U 22136AY  24017.37987454  .00000484  00000-0  48501-4 0  9998,2 54097  53.2155 220.9784 0001440  90.4962 269.6195 15.08837373 69232,6917.888,95.438,540.75,538.757,0.0
54097.0,STARLINK-5197,PAYLOAD,2024-01-17 20:14:43,15.08836953,0.0001408,53.2158,218.8969,93.5142,266.6011,1.4359e-05,-5.9e-07,0.0,0 STARLINK-5197,1 54097U 22136AY  24017.84355638 -.00000059  00000-0  14359-4 0  9996,2 54097  53.2158 218.8969 0001408  93.5142 266.6011 15.08836953 69770,6917.89,95.438,540.729,538.781,0.0
54097.0,STARLINK-5197,PAYLOAD,2024-01-18 13:43:57,15.088399,0.0001356,53.2153,215.6243,95.2132,264.9015,4.4263e-05,4.17e-06,0.0,0 STARLINK-5197,1 54097U 22136AY  24018.57219385  .00000417  00000-0  44263-4 0  9999,2 54097  53.2153 215.6243 0001356  95.2132 264.9015 15.08839900 69416,6917.881,95.438,540.684,538.808,0.0
54097.0,STARLINK-5197,PAYLOAD,2024-01-18 18:30:06,15.0884154,0.0001354,53.2154,214.7322,95.4567,264.658,5.5251e-05,5.92e-06,0.0,0 STARLINK-5197,1 54097U 22136AY  24018.77091245  .00000592  00000-0  55251-4 0  9997,2 54097  53.2154 214.7322 0001354  95.4567 264.6580 15.08841540 69447,6917.876,95.437,540.677,538.804,0.0
54097.0,STARLINK-5197,PAYLOAD,2024-01-19 13:34:44,15.08836068,0.0001292,53.2155,211.1643,89.827,270.287,6.1662e-05,6.94e-06,0.0,0 STARLINK-5197,1 54097U 22136AY  24019.56579661  .00000694  00000-0  61662-4 0  9994,2 54097  53.2155 211.1643 0001292  89.8270 270.2870 15.08836068 69561,6917.892,95.438,540.651,538.864,0.0
54097.0,STARLINK-5197,PAYLOAD,2024-01-19 19:56:17,15.08836871,0.0001277,53.2157,209.9752,87.7672,272.3466,6.3094e-05,7.16e-06,0.0,0 STARLINK-5197,1 54097U 22136AY  24019.83075674  .00000716  00000-0  63094-4 0  9995,2 54097  53.2157 209.9752 0001277  87.7672 272.3466 15.08836871 70079,6917.89,95.438,540.638,538.872,0.0
54097.0,STARLINK-5197,PAYLOAD,2024-01-19 21:31:40,15.08838529,0.0001349,53.2167,209.6778,89.0909,271.0238,4.7023e-05,4.61e-06,0.0,0 STARLINK-5197,1 54097U 22136AY  24019.89699629  .00000461  00000-0  47023-4 0  9994,2 54097  53.2167 209.6778 0001349  89.0909 271.0238 15.08838529 69616,6917.885,95.438,540.683,538.817,0.0
54097.0,STARLINK-5197,PAYLOAD,2024-01-19 23:07:03,15.08838993,0.0001337,53.2165,209.3799,89.1675,270.9471,5.0598e-05,5.17e-06,0.0,0 STARLINK-5197,1 54097U 22136AY  24019.96323583  .00000517  00000-0  50598-4 0  9998,2 54097  53.2165 209.3799 0001337  89.1675 270.9471 15.08838993 69625,6917.883,95.438,540.673,538.824,0.0
54097.0,STARLINK-5197,PAYLOAD,2024-01-20 19:47:04,15.08835374,0.0001386,53.2164,205.5135,91.7598,268.3553,-7.1608e-06,-4.02e-06,0.0,0 STARLINK-5197,1 54097U 22136AY  24020.82436253 -.00000402  00000-0 -71608-5 0  9995,2 54097  53.2164 205.5135 0001386  91.7598 268.3553 15.08835374 69759,6917.895,95.438,540.718,538.801,0.0
54097.0,STARLINK-5197,PAYLOAD,2024-01-21 11:40:56,15.08838797,0.0001463,53.2173,202.5386,87.384,272.732,6.2393e-05,7.05e-06,0.0,0 STARLINK-5197,1 54097U 22136AY  24021.48675991  .00000705  00000-0  62393-4 0  9996,2 54097  53.2173 202.5386 0001463  87.3840 272.7320 15.08838797 70329,6917.884,95.438,540.761,538.737,0.0
54097.0,STARLINK-5197,PAYLOAD,2024-01-21 19:37:51,15.08844954,0.0001414,53.2168,201.0529,88.8113,271.3041,0.00010423,1.371e-05,0.0,0 STARLINK-5197,1 54097U 22136AY  24021.81795393  .00001371  00000-0  10423-3 0  9998,2 54097  53.2168 201.0529 0001414  88.8113 271.3041 15.08844954 69900,6917.865,95.437,540.708,538.752,0.0
54097.0,STARLINK-5197,PAYLOAD,2024-01-22 11:31:42,15.08839764,0.0001444,53.217,198.0808,84.7165,275.3992,0.00011452,1.535e-05,0.0,0 STARLINK-5197,1 54097U 22136AY  24022.48035717  .00001535  00000-0  11452-3 0  9994,2 54097  53.2170 198.0808 0001444  84.7165 275.3992 15.08839764 70479,6917.881,95.438,540.745,538.747,0.0
54097.0,STARLINK-5197,PAYLOAD,2024-01-22 17:53:15,15.08841916,0.0001374,53.2172,196.8915,88.9057,271.2093,6.5444e-05,7.54e-06,0.0,0 STARLINK-5197,1 54097U 22136AY  24022.74531701  .00000754  00000-0  65444-4 0  9990,2 54097  53.2172 196.8915 0001374  88.9057 271.2093 15.08841916 70046,6917.875,95.437,540.69,538.789,0.0
54097.0,STARLINK-5197,PAYLOAD,2024-01-23 16:08:39,15.08843618,0.000144,53.2177,192.7288,84.3467,275.7689,1.5381e-05,-4.3e-07,0.0,0 STARLINK-5197,1 54097U 22136AY  24023.67267692 -.00000043  00000-0  15381-4 0  9995,2 54097  53.2177 192.7288 0001440  84.3467 275.7689 15.08843618 70656,6917.869,95.437,540.731,538.738,0.0
54097.0,STARLINK-5197,PAYLOAD,2024-01-23 17:44:02,15.08844576,0.0001464,53.2176,192.4313,84.5035,275.6124,1.9647e-05,2.5e-07,0.0,0 STARLINK-5197,1 54097U 22136AY  24023.73891539  .00000025  00000-0  19647-4 0  9993,2 54097  53.2176 192.4313 0001464  84.5035 275.6124 15.08844576 70196,6917.866,95.437,540.744,538.719,0.0
54097.0,STARLINK-5197,PAYLOAD,2024-01-24 14:24:03,15.08838404,0.0001539,53.2182,188.5666,99.944,260.1726,3.5269e-05,2.73e-06,0.0,0 STARLINK-5197,1 54097U 22136AY  24024.60003780  .00000273  00000-0  35269-4 0  9996,2 54097  53.2182 188.5666 0001539  99.9440 260.1726 15.08838404 70328,6917.885,95.438,540.815,538.686,0.0
54097.0,STARLINK-5197,PAYLOAD,2024-01-24 17:34:49,15.08837916,0.0001512,53.2181,187.9717,100.8862,259.2301,2.7669e-05,1.52e-06,0.0,0 STARLINK-5197,1 54097U 22136AY  24024.73251829  .00000152  00000-0  27669-4 0  9990,2 54097  53.2181 187.9717 0001512 100.8862 259.2301 15.08837916 70817,6917.887,95.438,540.798,538.706,0.0
54097.0,STARLINK-5197,PAYLOAD,2024-01-25 14:14:50,15.08835495,0.0001486,53.2179,184.103,99.7431,260.3729,-4.9197e-06,-3.66e-06,0.0,0 STARLINK-5197,1 54097U 22136AY  24025.59364242 -.00000366  00000-0 -49197-5 0  9999,2 54097  53.2179 184.1030 0001486  99.7431 260.3729 15.08835495 70478,6917.894,95.438,540.787,538.731,0.0
54097.0,STARLINK-5197,PAYLOAD,2024-01-25 17:25:37,15.08835218,0.0001416,53.2175,183.5069,93.1832,266.9322,-9.9374e-06,-4.46e-06,0.0,0 STARLINK-5197,1 54097U 22136AY  24025.72612308 -.00000446  00000-0 -99374-5 0  9994,2 54097  53.2175 183.5069 0001416  93.1832 266.9322 15.08835218 70491,6917.895,95.438,540.74,538.78,0.0
